42959,IRIDIUM 119,2017,100.4,860.0,+,86.4,Active,1,LEO,USA,USA,Commercial/Government,Communications,Falcon,1 42959U 17061E   24133.83581294  .00000953  00000+0  33320-3 0  9997,2 42959  86.3976 345.0993 0002136  80.2138 279.9299 14.34220806345118,14.34220806,0.0002136,LEO
42960,IRIDIUM 107,2017,100.4,860.0,+,86.4,Active,1,LEO,USA,USA,Commercial/Government,Communications,Falcon,1 42960U 17061F   24133.85483951  .00000986  00000+0  34509-3 0  9998,2 42960  86.3976 345.1079 0002023  80.0094 280.1330 14.34223117345129,14.34223117,0.0002023,LEO
42961,IRIDIUM 132,2017,100.4,860.0,+,86.4,Active,1,LEO,USA,USA,Commercial/Government,Communications,Falcon,1 42961U 17061G   24133.65187560  .00000028  00000+0  29661-5 0  9996,2 42961  86.3973 345.1777 0001910  83.2383 276.9030 14.34224426345092,14.34224426,0.000191,LEO
42962,IRIDIUM 136,2017,100.4,860.0,+,86.4,Active,1,LEO,USA,USA,Commercial/Government,Communications,Falcon,1 42962U 17061H   24134.52079840  .00000768  00000+0  26723-3 0  9990,2 42962  86.3977 344.8174 0002467  81.2531 278.8944 14.34219500345233,14.342195,0.0002467,LEO
42963,IRIDIUM 139,2017,100.4,860.0,+,86.41,Active,1,LEO,USA,USA,Commercial/Government,Communications,Falcon,1 42963U 17061J   24133.82946772 -.00000003  00000+0 -80747-5 0  9992,2 42963  86.3974 345.1560 0001779  81.1987 278.9410 14.34224592345149,14.34224592,0.0001779,LEO
42964,IRIDIUM 125,2017,100.4,860.0,+,86.4,Active,1,LEO,USA,USA,Commercial/Government,Communications,Falcon,1 42964U 17061K   24133.95632061  .00000444  00000+0  15136-3 0  9995,2 42964  86.3978 345.1501 0002265  78.0547 282.0903 14.34222036345174,14.34222036,0.0002265,LEO
43070,IRIDIUM 135,2017,100.4,860.0,+,86.39,Active,1,LEO,USA,USA,Commercial/Government,Communications,Falcon,1 43070U 17083A   24134.48859656  .00000965  00000+0  33735-3 0  9991,2 43070  86.3931 281.5783 0002154 100.9182 259.2256 14.34216854334541,14.34216854,0.0002154,LEO
43071,IRIDIUM 138,2017,100.4,860.0,+,86.39,Active,1,LEO,USA,USA,Commercial/Government,Communications,Falcon,1 43071U 17083B   24133.95581564  .00001178  00000+0  41344-3 0  9995,2 43071  86.3917 281.5218 0002175  85.5890 274.5554 14.34219257334457,14.34219257,0.0002175,LEO
